APRIZESAT 2             
1 28366U 04025A   26074.28137771  .00000327  00000+0  11452-3 0  9998
2 28366  98.0920 245.6199 0105853 172.9362 187.3347 14.37993176138143
SAUDICOMSAT 1           
1 28369U 04025D   26073.96872391  .00000544  00000+0  13583-3 0  9997
2 28369  98.5807  81.5469 0031261 313.6704  46.1901 14.55395953150429
SAUDICOMSAT 2           
1 28370U 04025E   26074.27440214  .00000347  00000+0  10076-3 0  9994
2 28370  98.6685  83.8520 0055564 182.8214 177.2673 14.49914156146492
APRIZESAT 1             
1 28372U 04025G   26074.28459333  .00000340  00000+0  95756-4 0  9991
2 28372  98.6343  82.4394 0045794  81.0320 279.6054 14.51719621148283
NANOSAT-1               
1 28493U 04049B   26074.26474261  .00001444  00000+0  19844-3 0  9995
2 28493  98.2109 208.7245 0003165 221.2488 138.8484 14.79939926141558
SAUDICOMSAT 7           
1 31119U 07012C   26073.85837410  .00000787  00000+0  14986-3 0  9991
2 31119  98.3687  46.1160 0056749 131.1906 229.4211 14.65979761  8619
SAUDICOMSAT 6           
1 31121U 07012E   26074.15422029  .00000744  00000+0  15212-3 0  9990
2 31121  98.3997  39.9850 0070624 259.4589  99.8650 14.62441813  6445
SAUDICOMSAT 5           
1 31124U 07012H   26074.16734154  .00001073  00000+0  19296-3 0  9991
2 31124  98.3398  47.1957 0048708  62.1786 298.4342 14.68015723  9809
SAUDICOMSAT 3           
1 31125U 07012J   26074.15357284  .00001323  00000+0  22417-3 0  9993
2 31125  98.3057  47.7411 0039066 351.4147   8.6385 14.70541986 11006
SAUDICOMSAT 4           
1 31127U 07012L   26074.13896924  .00000688  00000+0  13625-3 0  9996
2 31127  98.3891  44.8523 0063212 191.1333 168.8474 14.64387565  7526
APRIZESAT 4             
1 35684U 09041D   26074.18486408  .00000893  00000+0  11345-3 0  9994
2 35684  98.1476 147.6204 0042073 266.3102  93.3299 14.83720536897427
APRIZESAT 3             
1 35686U 09041F   26073.92859598  .00001833  00000+0  16338-3 0  9993
2 35686  98.1899 222.7300 0062316  19.2064 341.1484 14.95920075902288
S-NET D                 
1 43186U 18014G   26074.22010048  .00007589  00000+0  40151-3 0  9994
2 43186  97.5434 339.6284 0008218 356.4306   3.6867 15.15708213444529
S-NET B                 
1 43187U 18014H   26074.22975387  .00006870  00000+0  36411-3 0  9997
2 43187  97.5442 339.6215 0008740 351.4504   8.6578 15.15680055444525
S-NET A                 
1 43188U 18014J   26074.21941973  .00007615  00000+0  40275-3 0  9992
2 43188  97.5451 339.8033 0008623 351.8173   8.2918 15.15715408444527
S-NET C                 
1 43189U 18014K   26074.23312408  .00006840  00000+0  36252-3 0  9999
2 43189  97.5466 339.8769 0009754 342.8212  17.2689 15.15673094443078
SALSAT                  
1 46495U 20068K   26074.23852363  .00010372  00000+0  37867-3 0  9991
2 46495  97.8857  71.6917 0008033 272.6742  87.3577 15.28307413301004
