[{"OBJECT_NAME":"APRIZESAT 2","OBJECT_ID":"2004-025A","EPOCH":"2026-03-15T06:45:11.034144","MEAN_MOTION":14.37993176,"ECCENTRICITY":0.01058531,"INCLINATION":98.092,"RA_OF_ASC_NODE":245.6199,"ARG_OF_PERICENTER":172.9362,"MEAN_ANOMALY":187.3347,"EPHEMERIS_TYPE":0,"CLASSIFICATION_TYPE":"U","NORAD_CAT_ID":28366,"ELEMENT_SET_NO":999,"REV_AT_EPOCH":13814,"BSTAR":0.00011452377,"MEAN_MOTION_DOT":3.27e-6,"MEAN_MOTION_DDOT":0},{"OBJECT_NAME":"SAUDICOMSAT 1","OBJECT_ID":"2004-025D","EPOCH":"2026-03-14T23:14:57.745824","MEAN_MOTION":14.55395953,"ECCENTRICITY":0.00312613,"INCLINATION":98.5807,"RA_OF_ASC_NODE":81.5469,"ARG_OF_PERICENTER":313.6704,"MEAN_ANOMALY":46.1901,"EPHEMERIS_TYPE":0,"CLASSIFICATION_TYPE":"U","NORAD_CAT_ID":28369,"ELEMENT_SET_NO":999,"REV_AT_EPOCH":15042,"BSTAR":0.00013582902,"MEAN_MOTION_DOT":5.44e-6,"MEAN_MOTION_DDOT":0},{"OBJECT_NAME":"SAUDICOMSAT 2","OBJECT_ID":"2004-025E","EPOCH":"2026-03-15T06:35:08.344896","MEAN_MOTION":14.49914156,"ECCENTRICITY":0.00555645,"INCLINATION":98.6685,"RA_OF_ASC_NODE":83.852,"ARG_OF_PERICENTER":182.8214,"MEAN_ANOMALY":177.2673,"EPHEMERIS_TYPE":0,"CLASSIFICATION_TYPE":"U","NORAD_CAT_ID":28370,"ELEMENT_SET_NO":999,"REV_AT_EPOCH":14649,"BSTAR":0.00010075982,"MEAN_MOTION_DOT":3.47e-6,"MEAN_MOTION_DDOT":0},{"OBJECT_NAME":"APRIZESAT 1","OBJECT_ID":"2004-025G","EPOCH":"2026-03-15T06:49:48.863712","MEAN_MOTION":14.51719621,"ECCENTRICITY":0.00457947,"INCLINATION":98.6343,"RA_OF_ASC_NODE":82.4394,"ARG_OF_PERICENTER":81.032,"MEAN_ANOMALY":279.6054,"EPHEMERIS_TYPE":0,"CLASSIFICATION_TYPE":"U","NORAD_CAT_ID":28372,"ELEMENT_SET_NO":999,"REV_AT_EPOCH":14828,"BSTAR":9.575606e-5,"MEAN_MOTION_DOT":3.4e-6,"MEAN_MOTION_DDOT":0},{"OBJECT_NAME":"NANOSAT-1","OBJECT_ID":"2004-049B","EPOCH":"2026-03-15T06:21:13.761504","MEAN_MOTION":14.79939926,"ECCENTRICITY":0.00031658,"INCLINATION":98.2109,"RA_OF_ASC_NODE":208.7245,"ARG_OF_PERICENTER":221.2488,"MEAN_ANOMALY":138.8484,"EPHEMERIS_TYPE":0,"CLASSIFICATION_TYPE":"U","NORAD_CAT_ID":28493,"ELEMENT_SET_NO":999,"REV_AT_EPOCH":14155,"BSTAR":0.00019844298,"MEAN_MOTION_DOT":1.444e-5,"MEAN_MOTION_DDOT":0},{"OBJECT_NAME":"SAUDICOMSAT 7","OBJECT_ID":"2007-012C","EPOCH":"2026-03-14T20:36:03.522240","MEAN_MOTION":14.65979761,"ECCENTRICITY":0.00567496,"INCLINATION":98.3687,"RA_OF_ASC_NODE":46.116,"ARG_OF_PERICENTER":131.1906,"MEAN_ANOMALY":229.4211,"EPHEMERIS_TYPE":0,"CLASSIFICATION_TYPE":"U","NORAD_CAT_ID":31119,"ELEMENT_SET_NO":999,"REV_AT_EPOCH":861,"BSTAR":0.00014985743,"MEAN_MOTION_DOT":7.87e-6,"MEAN_MOTION_DDOT":0},{"OBJECT_NAME":"SAUDICOMSAT 6","OBJECT_ID":"2007-012E","EPOCH":"2026-03-15T03:42:04.633056","MEAN_MOTION":14.62441813,"ECCENTRICITY":0.00706247,"INCLINATION":98.3997,"RA_OF_ASC_NODE":39.985,"ARG_OF_PERICENTER":259.4589,"MEAN_ANOMALY":99.865,"EPHEMERIS_TYPE":0,"CLASSIFICATION_TYPE":"U","NORAD_CAT_ID":31121,"ELEMENT_SET_NO":999,"REV_AT_EPOCH":644,"BSTAR":0.00015212302,"MEAN_MOTION_DOT":7.44e-6,"MEAN_MOTION_DDOT":0},{"OBJECT_NAME":"SAUDICOMSAT 5","OBJECT_ID":"2007-012H","EPOCH":"2026-03-15T04:00:58.309056","MEAN_MOTION":14.68015723,"ECCENTRICITY":0.00487082,"INCLINATION":98.3398,"RA_OF_ASC_NODE":47.1957,"ARG_OF_PERICENTER":62.1786,"MEAN_ANOMALY":298.4342,"EPHEMERIS_TYPE":0,"CLASSIFICATION_TYPE":"U","NORAD_CAT_ID":31124,"ELEMENT_SET_NO":999,"REV_AT_EPOCH":980,"BSTAR":0.00019295638,"MEAN_MOTION_DOT":1.073e-5,"MEAN_MOTION_DDOT":0},{"OBJECT_NAME":"SAUDICOMSAT 3","OBJECT_ID":"2007-012J","EPOCH":"2026-03-15T03:41:08.693376","MEAN_MOTION":14.70541986,"ECCENTRICITY":0.00390667,"INCLINATION":98.3057,"RA_OF_ASC_NODE":47.7411,"ARG_OF_PERICENTER":351.4147,"MEAN_ANOMALY":8.6385,"EPHEMERIS_TYPE":0,"CLASSIFICATION_TYPE":"U","NORAD_CAT_ID":31125,"ELEMENT_SET_NO":999,"REV_AT_EPOCH":1100,"BSTAR":0.00022417338,"MEAN_MOTION_DOT":1.323e-5,"MEAN_MOTION_DDOT":0},{"OBJECT_NAME":"SAUDICOMSAT 4","OBJECT_ID":"2007-012L","EPOCH":"2026-03-15T03:20:06.942336","MEAN_MOTION":14.64387565,"ECCENTRICITY":0.0063212,"INCLINATION":98.3891,"RA_OF_ASC_NODE":44.8523,"ARG_OF_PERICENTER":191.1333,"MEAN_ANOMALY":168.8474,"EPHEMERIS_TYPE":0,"CLASSIFICATION_TYPE":"U","NORAD_CAT_ID":31127,"ELEMENT_SET_NO":999,"REV_AT_EPOCH":752,"BSTAR":0.0001362522,"MEAN_MOTION_DOT":6.88e-6,"MEAN_MOTION_DDOT":0},{"OBJECT_NAME":"APRIZESAT 4","OBJECT_ID":"2009-041D","EPOCH":"2026-03-15T04:26:12.256512","MEAN_MOTION":14.83720536,"ECCENTRICITY":0.00420735,"INCLINATION":98.1476,"RA_OF_ASC_NODE":147.6204,"ARG_OF_PERICENTER":266.3102,"MEAN_ANOMALY":93.3299,"EPHEMERIS_TYPE":0,"CLASSIFICATION_TYPE":"U","NORAD_CAT_ID":35684,"ELEMENT_SET_NO":999,"REV_AT_EPOCH":89742,"BSTAR":0.00011345475,"MEAN_MOTION_DOT":8.93e-6,"MEAN_MOTION_DDOT":0},{"OBJECT_NAME":"APRIZESAT 3","OBJECT_ID":"2009-041F","EPOCH":"2026-03-14T22:17:10.692672","MEAN_MOTION":14.95920075,"ECCENTRICITY":0.00623162,"INCLINATION":98.1899,"RA_OF_ASC_NODE":222.73,"ARG_OF_PERICENTER":19.2064,"MEAN_ANOMALY":341.1484,"EPHEMERIS_TYPE":0,"CLASSIFICATION_TYPE":"U","NORAD_CAT_ID":35686,"ELEMENT_SET_NO":999,"REV_AT_EPOCH":90228,"BSTAR":0.00016338335,"MEAN_MOTION_DOT":1.833e-5,"MEAN_MOTION_DDOT":0},{"OBJECT_NAME":"S-NET D","OBJECT_ID":"2018-014G","EPOCH":"2026-03-15T05:16:56.681472","MEAN_MOTION":15.15708213,"ECCENTRICITY":0.00082185,"INCLINATION":97.5434,"RA_OF_ASC_NODE":339.6284,"ARG_OF_PERICENTER":356.4306,"MEAN_ANOMALY":3.6867,"EPHEMERIS_TYPE":0,"CLASSIFICATION_TYPE":"U","NORAD_CAT_ID":43186,"ELEMENT_SET_NO":999,"REV_AT_EPOCH":44452,"BSTAR":0.00040151208,"MEAN_MOTION_DOT":7.589e-5,"MEAN_MOTION_DDOT":0},{"OBJECT_NAME":"S-NET B","OBJECT_ID":"2018-014H","EPOCH":"2026-03-15T05:30:50.734368","MEAN_MOTION":15.15680055,"ECCENTRICITY":0.00087405,"INCLINATION":97.5442,"RA_OF_ASC_NODE":339.6215,"ARG_OF_PERICENTER":351.4504,"MEAN_ANOMALY":8.6578,"EPHEMERIS_TYPE":0,"CLASSIFICATION_TYPE":"U","NORAD_CAT_ID":43187,"ELEMENT_SET_NO":999,"REV_AT_EPOCH":44452,"BSTAR":0.00036410687,"MEAN_MOTION_DOT":6.87e-5,"MEAN_MOTION_DDOT":0},{"OBJECT_NAME":"S-NET A","OBJECT_ID":"2018-014J","EPOCH":"2026-03-15T05:15:57.864672","MEAN_MOTION":15.15715408,"ECCENTRICITY":0.00086239,"INCLINATION":97.5451,"RA_OF_ASC_NODE":339.8033,"ARG_OF_PERICENTER":351.8173,"MEAN_ANOMALY":8.2918,"EPHEMERIS_TYPE":0,"CLASSIFICATION_TYPE":"U","NORAD_CAT_ID":43188,"ELEMENT_SET_NO":999,"REV_AT_EPOCH":44452,"BSTAR":0.00040275235,"MEAN_MOTION_DOT":7.615e-5,"MEAN_MOTION_DDOT":0},{"OBJECT_NAME":"S-NET C","OBJECT_ID":"2018-014K","EPOCH":"2026-03-15T05:35:41.920512","MEAN_MOTION":15.15673094,"ECCENTRICITY":0.00097546,"INCLINATION":97.5466,"RA_OF_ASC_NODE":339.8769,"ARG_OF_PERICENTER":342.8212,"MEAN_ANOMALY":17.2689,"EPHEMERIS_TYPE":0,"CLASSIFICATION_TYPE":"U","NORAD_CAT_ID":43189,"ELEMENT_SET_NO":999,"REV_AT_EPOCH":44307,"BSTAR":0.00036251765,"MEAN_MOTION_DOT":6.84e-5,"MEAN_MOTION_DDOT":0},{"OBJECT_NAME":"SALSAT","OBJECT_ID":"2020-068K","EPOCH":"2026-03-15T05:43:28.441632","MEAN_MOTION":15.28307413,"ECCENTRICITY":0.00080338,"INCLINATION":97.8857,"RA_OF_ASC_NODE":71.6917,"ARG_OF_PERICENTER":272.6742,"MEAN_ANOMALY":87.3577,"EPHEMERIS_TYPE":0,"CLASSIFICATION_TYPE":"U","NORAD_CAT_ID":46495,"ELEMENT_SET_NO":999,"REV_AT_EPOCH":30100,"BSTAR":0.00037867351,"MEAN_MOTION_DOT":0.00010372,"MEAN_MOTION_DDOT":0}]
